NUSAT-50 (NANCY ROMAN)  
1 60493U 24149AB  26068.80227738  .00012094  00000+0  42252-3 0  9994
2 60493  97.3817 150.7693 0002523 238.0469 122.0527 15.29713355 86930
STARLINK-35303          
1 65860U 25223G   26068.88468308  .00031084  00000+0  10570-2 0  9996
2 65860  53.1601 293.4015 0000871 102.6986 257.4112 15.30208014 24232
